OBJECT_NAME,OBJECT_ID,EPOCH,MEAN_MOTION,ECCENTRICITY,INCLINATION,RA_OF_ASC_NODE,ARG_OF_PERICENTER,MEAN_ANOMALY,EPHEMERIS_TYPE,CLASSIFICATION_TYPE,NORAD_CAT_ID,ELEMENT_SET_NO,REV_AT_EPOCH,BSTAR,MEAN_MOTION_DOT,MEAN_MOTION_DDOT
BEIDOU-3S IGSO-1S (C31),2015-019A,2026-06-16T16:24:52.902432,1.00249872,.0039073,49.1964,295.4674,191.1195,116.0543,0,U,40549,999,4106,0,-.175E-5,0
GPS BIIF-10 (PRN 08),2015-033A,2026-06-16T05:22:21.496224,2.00556080,.0115093,53.9832,267.1263,30.2378,330.4605,0,U,40730,999,7997,0,-.18E-6,0
BEIDOU-3S M2S (C58),2015-037A,2026-06-16T05:59:11.577120,1.86232022,.0008379,54.8724,302.0791,259.1051,100.7870,0,U,40748,999,7410,0,-.7E-6,0
BEIDOU-3S M1S (C57),2015-037B,2026-06-16T10:58:00.745248,1.86254750,.00034487,54.8681,302.0591,61.8038,298.2180,0,U,40749,999,7411,0,-.7E-6,0
GSAT0205 (GALILEO 9),2015-045A,2026-05-24T07:17:44.873376,1.67409242,.00064058,54.9357,222.4171,263.0112,96.9692,0,U,40889,999,6656,0,-.14E-6,0
GSAT0206 (GALILEO 10),2015-045B,2026-06-15T16:44:29.456160,1.70473766,.00017913,54.9450,221.6455,333.6365,26.4548,0,U,40890,999,6701,0,.52E-6,0
BEIDOU-3S IGSO-2S (C56),2015-053A,2026-06-16T15:24:35.159904,1.00258798,.0065689,49.2224,258.7891,192.0910,140.3729,0,U,40938,999,3934,0,-.129E-5,0
GPS BIIF-11 (PRN 10),2015-062A,2026-06-16T06:43:11.561088,2.00566870,.0111891,56.9588,30.8461,231.0569,127.9967,0,U,41019,999,7781,0,-.69E-6,0
GSAT-15 (GAGAN/PRN 139),2015-065A,2026-06-16T18:35:31.310016,1.00272443,.0004219,0.0711,265.2172,163.1321,209.0664,0,U,41028,999,3879,0,-.26E-5,0
GSAT0209 (GALILEO 12),2015-079A,2026-06-15T06:41:44.850912,1.70473583,.00053167,55.8263,101.3143,342.9908,16.9497,0,U,41174,999,6474,0,-.13E-6,0
GSAT0208 (GALILEO 11),2015-079B,2026-06-16T02:03:40.443264,1.70473579,.00048641,55.8253,101.2890,343.1626,16.7832,0,U,41175,999,6517,0,-.13E-6,0
IRNSS-1E,2016-003A,2026-06-16T15:15:10.215360,1.00278289,.0023285,33.2270,59.7572,150.0842,35.4479,0,U,41241,999,3807,0,-.321E-5,0
GPS BIIF-12 (PRN 32),2016-007A,2026-06-10T21:16:03.932832,2.00551966,.00960515,55.5202,89.7095,247.3753,111.5952,0,U,41328,999,7571,0,-.12E-6,0
COSMOS 2514 (751),2016-008A,2026-06-16T08:19:09.537888,2.13102535,.0011275,65.0222,313.0353,198.0125,161.9323,0,U,41330,999,8060,0,-.54E-6,0
BEIDOU-2 IGSO-6 (C13),2016-021A,2026-06-16T02:58:21.700128,1.00259474,.00571844,60.2243,38.0497,231.4868,132.3999,0,U,41434,999,3747,0,-.15E-5,0
IRNSS-1G,2016-027A,2026-06-16T18:45:45.328032,1.00266276,.0007546,5.1970,97.4824,355.0148,223.4807,0,U,41469,999,3717,0,-.34E-5,0
GSAT0211 (GALILEO 14),2016-030A,2026-06-14T10:48:10.446624,1.70473900,.0002887,55.0959,221.7703,323.8922,36.1904,0,U,41549,999,6262,0,.59E-6,0
GSAT0210 (GALILEO 13),2016-030B,2026-06-14T16:58:37.998336,1.70473923,.00046489,55.0955,221.7612,244.9793,115.0745,0,U,41550,999,6262,0,.58E-6,0
BEIDOU-2 G7 (C03),2016-037A,2026-06-16T18:40:23.343744,1.00276793,.0006427,1.7186,69.3101,357.8563,228.4192,0,U,41586,999,688,0,-.357E-5,0
EUTELSAT 117 WEST B (WAAS/PRN 131),2016-038B,2026-06-16T11:09:52.237152,1.00271793,.0000488,0.0091,156.2537,289.9959,228.9522,0,U,41589,999,3665,0,-.13E-6,0
GSAT0207 (GALILEO 15),2016-069A,2026-06-15T13:44:00.222720,1.70473545,.000529,55.4979,101.1309,329.9207,30.0086,0,U,41859,999,5937,0,-.14E-6,0
GSAT0212 (GALILEO 16),2016-069B,2026-06-14T06:03:34.358400,1.70473713,.00046425,55.4947,101.1626,358.3825,1.5720,0,U,41860,999,5960,0,-.11E-6,0
GSAT0213 (GALILEO 17),2016-069C,2026-06-15T04:57:04.571424,1.70474116,.00049587,55.4975,101.1440,312.6321,47.2844,0,U,41861,999,5948,0,-.13E-6,0
GSAT0214 (GALILEO 18),2016-069D,2026-06-14T04:18:14.499936,1.70473798,.0004255,55.4956,101.1651,319.5735,40.3509,0,U,41862,999,5959,0,-.1E-6,0
SES-15 (WAAS/PRN 133),2017-026A,2026-06-16T17:31:59.540736,1.00268094,.00004,0.0188,340.1677,51.5369,7.0995,0,U,42709,999,742,0,.58E-6,0
QZS-2 (QZSS/PRN 194),2017-028A,2026-06-15T12:28:38.731008,1.00284423,.07605138,39.4302,243.1796,269.2356,80.1810,0,U,42738,999,760,0,-.144E-5,0
QZS-3 (QZSS/PRN 199),2017-048A,2026-06-16T18:45:00.400032,1.00276218,.0001842,0.0688,170.0759,272.3593,230.8189,0,U,42917,999,3225,0,-.35E-5,0
COSMOS 2522 (752),2017-055A,2026-06-16T04:25:35.991840,2.13101765,.00108115,64.0787,191.9186,240.4183,119.5344,0,U,42939,999,6795,0,.77E-6,0
QZS-4 (QZSS/PRN 195),2017-062A,2026-06-16T08:29:46.528800,1.00250450,.07451754,40.1083,343.4922,271.7618,273.8478,0,U,42965,999,3179,0,-.348E-5,0
BEIDOU-3 M1 (C19),2017-069A,2026-06-16T01:25:09.439392,1.86230800,.00104164,56.6914,63.1220,325.8468,34.1241,0,U,43001,999,5858,0,-.5E-6,0
BEIDOU-3 M2 (C20),2017-069B,2026-06-15T23:56:56.499360,1.86230738,.0009202,56.6897,63.1605,351.0266,8.9945,0,U,43002,999,5857,0,-.5E-6,0
